{
  "norad_id": 51739,
  "name": "STARLINK-3516",
  "history": [
    {
      "epoch": "2026-03-28T15:49:27.760512",
      "apogee_km": 540.6932135894622,
      "perigee_km": 538.7894134775779,
      "latitude_deg": -52.325354437084194,
      "longitude_deg": 137.19751167995855,
      "semi_major_axis_km": 6917.87831353352,
      "eccentricity": 0.0001376,
      "inclination_deg": 53.2172,
      "raan_deg": 233.9632,
      "arg_perigee_deg": 85.2472,
      "mean_anomaly_deg": 274.8677,
      "mean_motion_rev_day": 15.08840679
    },
    {
      "epoch": "2026-03-29T02:57:09.351360",
      "apogee_km": 540.7050678779678,
      "perigee_km": 538.7556128614506,
      "latitude_deg": -13.26083381269205,
      "longitude_deg": -178.28960960009135,
      "semi_major_axis_km": 6917.8673403697085,
      "eccentricity": 0.0001409,
      "inclination_deg": 53.2176,
      "raan_deg": 231.8817,
      "arg_perigee_deg": 85.0257,
      "mean_anomaly_deg": 275.0896,
      "mean_motion_rev_day": 15.08844269
    }
  ]
}